GLOBALSTAR M063         
1 26081U 00008A   26001.29443273 -.00000078  00000+0  72202-4 0  9990
2 26081  51.9978 309.8254 0004871 339.7534 187.6763 11.86178553181084
GLOBALSTAR M062         
1 26082U 00008B   26001.04110914  .00000052  00000+0  10730-2 0  9994
2 26082  51.9828 233.9479 0006968 165.8076 341.9827 12.43480621521230
GLOBALSTAR M060         
1 26083U 00008C   26001.07790420 -.00000107  00000+0 -15529-3 0  9999
2 26083  52.0000 221.8459 0003403 146.7438  13.6780 12.17671669176478
GLOBALSTAR M064         
1 26084U 00008D   26001.28152876 -.00000064  00000+0  26874-3 0  9996
2 26084  52.0048  46.3514 0001697  91.6728 268.4299 11.88539890190653
GLOBALSTAR M065         
1 31571U 07020A   25351.59775860 -.00000114  00000+0 -59491-4 0  9998
2 31571  51.9915  28.0181 0009699 356.5964 173.4742 12.62015524856566
GLOBALSTAR M069         
1 31573U 07020C   26001.29474617 -.00000066  00000+0  24843-3 0  9993
2 31573  52.0060   4.4960 0001824 159.7336 305.5241 12.23465526858373
GLOBALSTAR M072         
1 31574U 07020D   25365.90075292 -.00000058  00000+0  35125-3 0  9996
2 31574  51.9899 185.6078 0001461  41.1459 107.2261 11.91654942855036
GLOBALSTAR M071         
1 31576U 07020F   26001.27480152 -.00000123  00000+0 -31848-3 0  9993
2 31576  52.0078  35.7542 0001143 145.4108 295.2716 12.18263365519086
